{
  "type": "FeatureCollection",
  "features": [
    {
      "type": "Feature",
      "properties": {
        "norad_id": 66589,
        "name": "STARLINK-35447",
        "group": "last-30-days",
        "lat": 10.263258733124557,
        "lon": -18.958610857521165,
        "alt_km": 413.8201117336257,
        "timestamp": "2025-12-16T05:49:07.983635+00:00",
        "meta_object_name": "STARLINK-35447",
        "meta_object_id": "2025-270B",
        "meta_epoch": "2025-12-15T19:50:05.279136",
        "meta_mean_motion": 15.50406155,
        "meta_eccentricity": 0.00019933,
        "meta_inclination": 42.9998,
        "meta_ra_of_asc_node": 174.6793,
        "meta_arg_of_pericenter": 255.6063,
        "meta_mean_anomaly": 104.4576,
        "meta_ephemeris_type": 0,
        "meta_classification_type": "U",
        "meta_norad_cat_id": 66589,
        "meta_element_set_no": 999,
        "meta_rev_at_epoch": 493,
        "meta_bstar": 0.0010135663,
        "meta_mean_motion_dot": 0.00059205,
        "meta_mean_motion_ddot": 0,
        "tle_line1": "1 66589U 25270B   25349.82644999  .00059205  00000+0  10136-2 0  9997",
        "tle_line2": "2 66589  42.9998 174.6793 0001993 255.6063 104.4576 15.50406155  4938"
      },
      "geometry": {
        "type": "Point",
        "coordinates": [
          -18.958610857521165,
          10.263258733124557
        ]
      }
    },
    {
      "type": "Feature",
      "properties": {
        "norad_id": 66590,
        "name": "STARLINK-35429",
        "group": "last-30-days",
        "lat": 10.076947384476322,
        "lon": -18.74655038108082,
        "alt_km": 413.6634850328983,
        "timestamp": "2025-12-16T05:49:07.983661+00:00",
        "meta_object_name": "STARLINK-35429",
        "meta_object_id": "2025-270C",
        "meta_epoch": "2025-12-15T21:22:50.579616",
        "meta_mean_motion": 15.50589182,
        "meta_eccentricity": 0.0001714,
        "meta_inclination": 42.9987,
        "meta_ra_of_asc_node": 174.3053,
        "meta_arg_of_pericenter": 273.6087,
        "meta_mean_anomaly": 86.4577,
        "meta_ephemeris_type": 0,
        "meta_classification_type": "U",
        "meta_norad_cat_id": 66590,
        "meta_element_set_no": 999,
        "meta_rev_at_epoch": 494,
        "meta_bstar": 0.001003369,
        "meta_mean_motion_dot": 0.00058988,
        "meta_mean_motion_ddot": 0,
        "tle_line1": "1 66590U 25270C   25349.89086319  .00058988  00000+0  10034-2 0  9996",
        "tle_line2": "2 66590  42.9987 174.3053 0001714 273.6087  86.4577 15.50589182  4944"
      },
      "geometry": {
        "type": "Point",
        "coordinates": [
          -18.74655038108082,
          10.076947384476322
        ]
      }
    },
    {
      "type": "Feature",
      "properties": {
        "norad_id": 66591,
        "name": "STARLINK-36058",
        "group": "last-30-days",
        "lat": 7.446595922179025,
        "lon": -15.825835208158573,
        "alt_km": 414.29095469165713,
        "timestamp": "2025-12-16T05:49:07.983672+00:00",
        "meta_object_name": "STARLINK-36058",
        "meta_object_id": "2025-270D",
        "meta_epoch": "2025-12-15T21:21:49.628736",
        "meta_mean_motion": 15.50572022,
        "meta_eccentricity": 0.00027275,
        "meta_inclination": 42.9984,
        "meta_ra_of_asc_node": 174.299,
        "meta_arg_of_pericenter": 277.7075,
        "meta_mean_anomaly": 82.3476,
        "meta_ephemeris_type": 0,
        "meta_classification_type": "U",
        "meta_norad_cat_id": 66591,
        "meta_element_set_no": 999,
        "meta_rev_at_epoch": 483,
        "meta_bstar": 0.0014667989,
        "meta_mean_motion_dot": 0.00086651,
        "meta_mean_motion_ddot": 0,
        "tle_line1": "1 66591U 25270D   25349.89015774  .00086651  00000+0  14668-2 0  9999",
        "tle_line2": "2 66591  42.9984 174.2990 0002727 277.7075  82.3476 15.50572022  4834"
      },
      "geometry": {
        "type": "Point",
        "coordinates": [
          -15.825835208158573,
          7.446595922179025
        ]
      }
    },
    {
      "type": "Feature",
      "properties": {
        "norad_id": 66592,
        "name": "STARLINK-36066",
        "group": "last-30-days",
        "lat": 40.65961029718277,
        "lon": -120.34467476281742,
        "alt_km": 438.6794091078482,
        "timestamp": "2025-12-16T05:49:07.983682+00:00",
        "meta_object_name": "STARLINK-36066",
        "meta_object_id": "2025-270E",
        "meta_epoch": "2025-12-15T22:00:01.999584",
        "meta_mean_motion": 15.40660232,
        "meta_eccentricity": 0.00016997,
        "meta_inclination": 42.9995,
        "meta_ra_of_asc_node": 174.3515,
        "meta_arg_of_pericenter": 265.487,
        "meta_mean_anomaly": 158.441,
        "meta_ephemeris_type": 0,
        "meta_classification_type": "U",
        "meta_norad_cat_id": 66592,
        "meta_element_set_no": 999,
        "meta_rev_at_epoch": 481,
        "meta_bstar": 0.001623984,
        "meta_mean_motion_dot": 0.00068052,
        "meta_mean_motion_ddot": 0,
        "tle_line1": "1 66592U 25270E   25349.91668981  .00068052  00000+0  16240-2 0  9990",
        "tle_line2": "2 66592  42.9995 174.3515 0001699 265.4870 158.4410 15.40660232  4816"
      },
      "geometry": {
        "type": "Point",
        "coordinates": [
          -120.34467476281742,
          40.65961029718277
        ]
      }
    },
    {
      "type": "Feature",
      "properties": {
        "norad_id": 66593,
        "name": "STARLINK-36031",
        "group": "last-30-days",
        "lat": 10.051641528890732,
        "lon": -18.71873092466056,
        "alt_km": 419.58561665543675,
        "timestamp": "2025-12-16T05:49:07.983693+00:00",
        "meta_object_name": "STARLINK-36031",
        "meta_object_id": "2025-270F",
        "meta_epoch": "2025-12-15T13:38:01.427712",
        "meta_mean_motion": 15.48926076,
        "meta_eccentricity": 0.00022408,
        "meta_inclination": 42.9987,
        "meta_ra_of_asc_node": 176.1834,
        "meta_arg_of_pericenter": 337.1851,
        "meta_mean_anomaly": 22.8909,
        "meta_ephemeris_type": 0,
        "meta_classification_type": "U",
        "meta_norad_cat_id": 66593,
        "meta_element_set_no": 999,
        "meta_rev_at_epoch": 478,
        "meta_bstar": 0.00074784737,
        "meta_mean_motion_dot": 0.00041265,
        "meta_mean_motion_ddot": 0,
        "tle_line1": "1 66593U 25270F   25349.56807208  .00041265  00000+0  74785-3 0  9995",
        "tle_line2": "2 66593  42.9987 176.1834 0002240 337.1851  22.8909 15.48926076  4783"
      },
      "geometry": {
        "type": "Point",
        "coordinates": [
          -18.71873092466056,
          10.051641528890732
        ]
      }
    },
    {
      "type": "Feature",
      "properties": {
        "norad_id": 66594,
        "name": "STARLINK-36032",
        "group": "last-30-days",
        "lat": 3.5762007679278067,
        "lon": -11.621601381503273,
        "alt_km": 414.2588504346895,
        "timestamp": "2025-12-16T05:49:07.983702+00:00",
        "meta_object_name": "STARLINK-36032",
        "meta_object_id": "2025-270G",
        "meta_epoch": "2025-12-15T21:20:22.384608",
        "meta_mean_motion": 15.50606409,
        "meta_eccentricity": 0.00016785,
        "meta_inclination": 42.9986,
        "meta_ra_of_asc_node": 174.2915,
        "meta_arg_of_pericenter": 271.4939,
        "meta_mean_anomaly": 88.5729,
        "meta_ephemeris_type": 0,
        "meta_classification_type": "U",
        "meta_norad_cat_id": 66594,
        "meta_element_set_no": 999,
        "meta_rev_at_epoch": 464,
        "meta_bstar": 0.001404017,
        "meta_mean_motion_dot": 0.00082985,
        "meta_mean_motion_ddot": 0,
        "tle_line1": "1 66594U 25270G   25349.88914797  .00082985  00000+0  14040-2 0  9994",
        "tle_line2": "2 66594  42.9986 174.2915 0001678 271.4939  88.5729 15.50606409  4645"
      },
      "geometry": {
        "type": "Point",
        "coordinates": [
          -11.621601381503273,
          3.5762007679278067
        ]
      }
    },
    {
      "type": "Feature",
      "properties": {
        "norad_id": 66595,
        "name": "STARLINK-35711",
        "group": "last-30-days",
        "lat": 2.280435999563386,
        "lon": -10.2309991938232,
        "alt_km": 414.26431121463975,
        "timestamp": "2025-12-16T05:49:07.983715+00:00",
        "meta_object_name": "STARLINK-35711",
        "meta_object_id": "2025-270H",
        "meta_epoch": "2025-12-15T21:19:52.820256",
        "meta_mean_motion": 15.50599835,
        "meta_eccentricity": 0.00015719,
        "meta_inclination": 42.9989,
        "meta_ra_of_asc_node": 174.2876,
        "meta_arg_of_pericenter": 262.9303,
        "meta_mean_anomaly": 97.1378,
        "meta_ephemeris_type": 0,
        "meta_classification_type": "U",
        "meta_norad_cat_id": 66595,
        "meta_element_set_no": 999,
        "meta_rev_at_epoch": 494,
        "meta_bstar": 0.0012878764,
        "meta_mean_motion_dot": 0.00076006,
        "meta_mean_motion_ddot": 0,
        "tle_line1": "1 66595U 25270H   25349.88880579  .00076006  00000+0  12879-2 0  9990",
        "tle_line2": "2 66595  42.9989 174.2876 0001571 262.9303  97.1378 15.50599835  4940"
      },
      "geometry": {
        "type": "Point",
        "coordinates": [
          -10.2309991938232,
          2.280435999563386
        ]
      }
    }
  ]
}